{
  "type": "FeatureCollection",
  "features": [
    {
      "type": "Feature",
      "properties": {
        "norad_id": 34554,
        "name": "COSMOS 2251 DEB",
        "group": "cosmos-2251-debris",
        "lat": -44.62019964356429,
        "lon": -78.47623558003357,
        "alt_km": 760.4337652402337,
        "timestamp": "2025-12-13T07:35:41.899292+00:00",
        "meta_object_name": "COSMOS 2251 DEB",
        "meta_object_id": "1993-036UQ",
        "meta_epoch": "2025-12-12T22:03:19.066752",
        "meta_mean_motion": 14.37939496,
        "meta_eccentricity": 0.00229934,
        "meta_inclination": 74.0385,
        "meta_ra_of_asc_node": 298.6609,
        "meta_arg_of_pericenter": 0.957,
        "meta_mean_anomaly": 55.5895,
        "meta_ephemeris_type": 0,
        "meta_classification_type": "U",
        "meta_norad_cat_id": 34554,
        "meta_element_set_no": 999,
        "meta_rev_at_epoch": 87758,
        "meta_bstar": 0.0005509245,
        "meta_mean_motion_dot": 1.643e-05,
        "meta_mean_motion_ddot": 0,
        "tle_line1": "1 34554U 93036UQ  25346.91897068  .00001643  00000+0  55092-3 0  9997",
        "tle_line2": "2 34554  74.0385 298.6609 0022993   0.9570  55.5895 14.37939496877583"
      },
      "geometry": {
        "type": "Point",
        "coordinates": [
          -78.47623558003357,
          -44.62019964356429
        ]
      }
    },
    {
      "type": "Feature",
      "properties": {
        "norad_id": 34556,
        "name": "COSMOS 2251 DEB",
        "group": "cosmos-2251-debris",
        "lat": -14.10493803012666,
        "lon": -52.14679486134856,
        "alt_km": 635.084263193352,
        "timestamp": "2025-12-13T07:35:41.899301+00:00",
        "meta_object_name": "COSMOS 2251 DEB",
        "meta_object_id": "1993-036US",
        "meta_epoch": "2025-12-12T09:44:10.295808",
        "meta_mean_motion": 14.77791296,
        "meta_eccentricity": 0.00077848,
        "meta_inclination": 74.0158,
        "meta_ra_of_asc_node": 125.5121,
        "meta_arg_of_pericenter": 186.3549,
        "meta_mean_anomaly": 204.7388,
        "meta_ephemeris_type": 0,
        "meta_classification_type": "U",
        "meta_norad_cat_id": 34556,
        "meta_element_set_no": 999,
        "meta_rev_at_epoch": 88324,
        "meta_bstar": 0.0034481142,
        "meta_mean_motion_dot": 0.00024834,
        "meta_mean_motion_ddot": 0,
        "tle_line1": "1 34556U 93036US  25346.40567472  .00024834  00000+0  34481-2 0  9991",
        "tle_line2": "2 34556  74.0158 125.5121 0007784 186.3549 204.7388 14.77791296883249"
      },
      "geometry": {
        "type": "Point",
        "coordinates": [
          -52.14679486134856,
          -14.10493803012666
        ]
      }
    },
    {
      "type": "Feature",
      "properties": {
        "norad_id": 34560,
        "name": "COSMOS 2251 DEB",
        "group": "cosmos-2251-debris",
        "lat": 68.95027812087474,
        "lon": -170.853691769281,
        "alt_km": 655.6370742552654,
        "timestamp": "2025-12-13T07:35:41.899311+00:00",
        "meta_object_name": "COSMOS 2251 DEB",
        "meta_object_id": "1993-036UW",
        "meta_epoch": "2025-12-12T10:10:53.971392",
        "meta_mean_motion": 14.72128553,
        "meta_eccentricity": 0.00146169,
        "meta_inclination": 74.0168,
        "meta_ra_of_asc_node": 142.7468,
        "meta_arg_of_pericenter": 224.151,
        "meta_mean_anomaly": 165.5315,
        "meta_ephemeris_type": 0,
        "meta_classification_type": "U",
        "meta_norad_cat_id": 34560,
        "meta_element_set_no": 999,
        "meta_rev_at_epoch": 88247,
        "meta_bstar": 0.0032063543,
        "meta_mean_motion_dot": 0.00020251,
        "meta_mean_motion_ddot": 0,
        "tle_line1": "1 34560U 93036UW  25346.42423578  .00020251  00000+0  32064-2 0  9990",
        "tle_line2": "2 34560  74.0168 142.7468 0014616 224.1510 165.5315 14.72128553882474"
      },
      "geometry": {
        "type": "Point",
        "coordinates": [
          -170.853691769281,
          68.95027812087474
        ]
      }
    },
    {
      "type": "Feature",
      "properties": {
        "norad_id": 34563,
        "name": "COSMOS 2251 DEB",
        "group": "cosmos-2251-debris",
        "lat": 30.509105522416803,
        "lon": 12.921967477552842,
        "alt_km": 743.5013660558989,
        "timestamp": "2025-12-13T07:35:41.899320+00:00",
        "meta_object_name": "COSMOS 2251 DEB",
        "meta_object_id": "1993-036UZ",
        "meta_epoch": "2025-12-12T21:01:49.368576",
        "meta_mean_motion": 14.46511069,
        "meta_eccentricity": 0.00138854,
        "meta_inclination": 74.0377,
        "meta_ra_of_asc_node": 203.4533,
        "meta_arg_of_pericenter": 297.3592,
        "meta_mean_anomaly": 79.416,
        "meta_ephemeris_type": 0,
        "meta_classification_type": "U",
        "meta_norad_cat_id": 34563,
        "meta_element_set_no": 999,
        "meta_rev_at_epoch": 88199,
        "meta_bstar": 0.00068786465,
        "meta_mean_motion_dot": 2.453e-05,
        "meta_mean_motion_ddot": 0,
        "tle_line1": "1 34563U 93036UZ  25346.87626584  .00002453  00000+0  68786-3 0  9999",
        "tle_line2": "2 34563  74.0377 203.4533 0013885 297.3592  79.4160 14.46511069881992"
      },
      "geometry": {
        "type": "Point",
        "coordinates": [
          12.921967477552842,
          30.509105522416803
        ]
      }
    },
    {
      "type": "Feature",
      "properties": {
        "norad_id": 34564,
        "name": "COSMOS 2251 DEB",
        "group": "cosmos-2251-debris",
        "lat": -73.36301328508547,
        "lon": 163.57241962161342,
        "alt_km": 757.6581601019625,
        "timestamp": "2025-12-13T07:35:41.899329+00:00",
        "meta_object_name": "COSMOS 2251 DEB",
        "meta_object_id": "1993-036VA",
        "meta_epoch": "2025-12-12T20:52:29.583840",
        "meta_mean_motion": 14.40690777,
        "meta_eccentricity": 0.00190355,
        "meta_inclination": 74.0323,
        "meta_ra_of_asc_node": 237.7711,
        "meta_arg_of_pericenter": 341.7947,
        "meta_mean_anomaly": 137.3992,
        "meta_ephemeris_type": 0,
        "meta_classification_type": "U",
        "meta_norad_cat_id": 34564,
        "meta_element_set_no": 999,
        "meta_rev_at_epoch": 88008,
        "meta_bstar": 0.00039435837,
        "meta_mean_motion_dot": 1.236e-05,
        "meta_mean_motion_ddot": 0,
        "tle_line1": "1 34564U 93036VA  25346.86978685  .00001236  00000+0  39436-3 0  9999",
        "tle_line2": "2 34564  74.0323 237.7711 0019035 341.7947 137.3992 14.40690777880087"
      },
      "geometry": {
        "type": "Point",
        "coordinates": [
          163.57241962161342,
          -73.36301328508547
        ]
      }
    },
    {
      "type": "Feature",
      "properties": {
        "norad_id": 34567,
        "name": "COSMOS 2251 DEB",
        "group": "cosmos-2251-debris",
        "lat": -66.82690094663506,
        "lon": 113.78603774000183,
        "alt_km": 789.4042240179633,
        "timestamp": "2025-12-13T07:35:41.899338+00:00",
        "meta_object_name": "COSMOS 2251 DEB",
        "meta_object_id": "1993-036VD",
        "meta_epoch": "2025-12-12T22:25:07.639680",
        "meta_mean_motion": 14.2401674,
        "meta_eccentricity": 0.00744441,
        "meta_inclination": 74.0399,
        "meta_ra_of_asc_node": 156.4302,
        "meta_arg_of_pericenter": 230.6412,
        "meta_mean_anomaly": 256.4203,
        "meta_ephemeris_type": 0,
        "meta_classification_type": "U",
        "meta_norad_cat_id": 34567,
        "meta_element_set_no": 999,
        "meta_rev_at_epoch": 87127,
        "meta_bstar": 0.0003371743,
        "meta_mean_motion_dot": 7.71e-06,
        "meta_mean_motion_ddot": 0,
        "tle_line1": "1 34567U 93036VD  25346.93411620  .00000771  00000+0  33717-3 0  9990",
        "tle_line2": "2 34567  74.0399 156.4302 0074444 230.6412 256.4203 14.24016740871277"
      },
      "geometry": {
        "type": "Point",
        "coordinates": [
          113.78603774000183,
          -66.82690094663506
        ]
      }
    },
    {
      "type": "Feature",
      "properties": {
        "norad_id": 34569,
        "name": "COSMOS 2251 DEB",
        "group": "cosmos-2251-debris",
        "lat": 72.98167834946726,
        "lon": -52.62845844869742,
        "alt_km": 762.5663111268041,
        "timestamp": "2025-12-13T07:35:41.899347+00:00",
        "meta_object_name": "COSMOS 2251 DEB",
        "meta_object_id": "1993-036VF",
        "meta_epoch": "2025-12-12T21:06:25.492608",
        "meta_mean_motion": 14.24753601,
        "meta_eccentricity": 0.01573116,
        "meta_inclination": 73.9904,
        "meta_ra_of_asc_node": 197.8836,
        "meta_arg_of_pericenter": 26.2401,
        "meta_mean_anomaly": 347.368,
        "meta_ephemeris_type": 0,
        "meta_classification_type": "U",
        "meta_norad_cat_id": 34569,
        "meta_element_set_no": 999,
        "meta_rev_at_epoch": 86970,
        "meta_bstar": 0.00070179375,
        "meta_mean_motion_dot": 1.834e-05,
        "meta_mean_motion_ddot": 0,
        "tle_line1": "1 34569U 93036VF  25346.87946172  .00001834  00000+0  70179-3 0  9994",
        "tle_line2": "2 34569  73.9904 197.8836 0157311  26.2401 347.3680 14.24753601869700"
      },
      "geometry": {
        "type": "Point",
        "coordinates": [
          -52.62845844869742,
          72.98167834946726
        ]
      }
    }
  ]
}